{
  "type": "FeatureCollection",
  "features": [
    {
      "type": "Feature",
      "properties": {
        "norad_id": 45358,
        "name": "COSMOS 2545 (760)",
        "group": "gnss",
        "lat": -3.100034193866053,
        "lon": 140.8095414413862,
        "alt_km": 19117.825786037556,
        "timestamp": "2025-12-02T08:59:32.957768+00:00",
        "meta_object_name": "COSMOS 2545 (760)",
        "meta_object_id": "2020-018A",
        "meta_epoch": "2025-11-30T06:11:57.120864",
        "meta_mean_motion": 2.13102401,
        "meta_eccentricity": 0.00119448,
        "meta_inclination": 64.4769,
        "meta_ra_of_asc_node": 319.4079,
        "meta_arg_of_pericenter": 248.2158,
        "meta_mean_anomaly": 111.6706,
        "meta_ephemeris_type": 0,
        "meta_classification_type": "U",
        "meta_norad_cat_id": 45358,
        "meta_element_set_no": 999,
        "meta_rev_at_epoch": 4442,
        "meta_bstar": 0,
        "meta_mean_motion_dot": -2.2e-07,
        "meta_mean_motion_ddot": 0,
        "tle_line1": "1 45358U 20018A   25334.25830001 -.00000022  00000+0  00000+0 0  9995",
        "tle_line2": "2 45358  64.4769 319.4079 0011944 248.2158 111.6706  2.13102401 44425"
      },
      "geometry": {
        "type": "Point",
        "coordinates": [
          140.8095414413862,
          -3.100034193866053
        ]
      }
    },
    {
      "type": "Feature",
      "properties": {
        "norad_id": 45807,
        "name": "BEIDOU-3 G3 (C61)",
        "group": "gnss",
        "lat": -1.848292527309438,
        "lon": -43.18991771506313,
        "alt_km": 35776.09356946012,
        "timestamp": "2025-12-02T08:59:32.957781+00:00",
        "meta_object_name": "BEIDOU-3 G3 (C61)",
        "meta_object_id": "2020-040A",
        "meta_epoch": "2025-12-01T14:20:22.098336",
        "meta_mean_motion": 1.00267664,
        "meta_eccentricity": 0.0004952,
        "meta_inclination": 1.9619,
        "meta_ra_of_asc_node": 66.5006,
        "meta_arg_of_pericenter": 306.5523,
        "meta_mean_anomaly": 23.2908,
        "meta_ephemeris_type": 0,
        "meta_classification_type": "U",
        "meta_norad_cat_id": 45807,
        "meta_element_set_no": 999,
        "meta_rev_at_epoch": 2008,
        "meta_bstar": 0,
        "meta_mean_motion_dot": -3.32e-06,
        "meta_mean_motion_ddot": 0,
        "tle_line1": "1 45807U 20040A   25335.59747799 -.00000332  00000+0  00000+0 0  9992",
        "tle_line2": "2 45807   1.9619  66.5006 0004952 306.5523  23.2908  1.00267664 20085"
      },
      "geometry": {
        "type": "Point",
        "coordinates": [
          -43.18991771506313,
          -1.848292527309438
        ]
      }
    },
    {
      "type": "Feature",
      "properties": {
        "norad_id": 45854,
        "name": "GPS BIII-3  (PRN 23)",
        "group": "gnss",
        "lat": 46.28742854682469,
        "lon": 80.31035952027833,
        "alt_km": 20304.447548749857,
        "timestamp": "2025-12-02T08:59:32.957793+00:00",
        "meta_object_name": "GPS BIII-3  (PRN 23)",
        "meta_object_id": "2020-041A",
        "meta_epoch": "2025-12-01T12:48:33.414048",
        "meta_mean_motion": 2.00561786,
        "meta_eccentricity": 0.00602336,
        "meta_inclination": 56.5391,
        "meta_ra_of_asc_node": 36.623,
        "meta_arg_of_pericenter": 202.9184,
        "meta_mean_anomaly": 330.3559,
        "meta_ephemeris_type": 0,
        "meta_classification_type": "U",
        "meta_norad_cat_id": 45854,
        "meta_element_set_no": 999,
        "meta_rev_at_epoch": 4007,
        "meta_bstar": 0,
        "meta_mean_motion_dot": -6.5e-07,
        "meta_mean_motion_ddot": 0,
        "tle_line1": "1 45854U 20041A   25335.53372007 -.00000065  00000+0  00000+0 0  9998",
        "tle_line2": "2 45854  56.5391  36.6230 0060233 202.9184 330.3559  2.00561786 40071"
      },
      "geometry": {
        "type": "Point",
        "coordinates": [
          80.31035952027833,
          46.28742854682469
        ]
      }
    },
    {
      "type": "Feature",
      "properties": {
        "norad_id": 46114,
        "name": "GALAXY 30 (WAAS/PRN 135)",
        "group": "gnss",
        "lat": 0.022776997195839345,
        "lon": 81.33795605563324,
        "alt_km": 35795.702585371546,
        "timestamp": "2025-12-02T08:59:32.957805+00:00",
        "meta_object_name": "GALAXY 30 (WAAS/PRN 135)",
        "meta_object_id": "2020-056C",
        "meta_epoch": "2025-12-01T20:42:04.934304",
        "meta_mean_motion": 1.0027242,
        "meta_eccentricity": 0.0002369,
        "meta_inclination": 0.0148,
        "meta_ra_of_asc_node": 292.7027,
        "meta_arg_of_pericenter": 317.0993,
        "meta_mean_anomaly": 6.6971,
        "meta_ephemeris_type": 0,
        "meta_classification_type": "U",
        "meta_norad_cat_id": 46114,
        "meta_element_set_no": 999,
        "meta_rev_at_epoch": 1931,
        "meta_bstar": 0,
        "meta_mean_motion_dot": 5.8e-07,
        "meta_mean_motion_ddot": 0,
        "tle_line1": "1 46114U 20056C   25335.86255711  .00000058  00000+0  00000+0 0  9993",
        "tle_line2": "2 46114   0.0148 292.7027 0002369 317.0993   6.6971  1.00272420 19313"
      },
      "geometry": {
        "type": "Point",
        "coordinates": [
          81.33795605563324,
          0.022776997195839345
        ]
      }
    },
    {
      "type": "Feature",
      "properties": {
        "norad_id": 46805,
        "name": "COSMOS 2547 (705K)",
        "group": "gnss",
        "lat": 34.945203237436566,
        "lon": -141.57042800382598,
        "alt_km": 19141.911729895364,
        "timestamp": "2025-12-02T08:59:32.957816+00:00",
        "meta_object_name": "COSMOS 2547 (705K)",
        "meta_object_id": "2020-075A",
        "meta_epoch": "2025-11-30T21:58:22.930752",
        "meta_mean_motion": 2.13099889,
        "meta_eccentricity": 0.00063143,
        "meta_inclination": 64.5957,
        "meta_ra_of_asc_node": 199.0914,
        "meta_arg_of_pericenter": 229.6069,
        "meta_mean_anomaly": 130.4292,
        "meta_ephemeris_type": 0,
        "meta_classification_type": "U",
        "meta_norad_cat_id": 46805,
        "meta_element_set_no": 999,
        "meta_rev_at_epoch": 3968,
        "meta_bstar": 0,
        "meta_mean_motion_dot": 9.8e-07,
        "meta_mean_motion_ddot": 0,
        "tle_line1": "1 46805U 20075A   25334.91554318  .00000098  00000+0  00000+0 0  9995",
        "tle_line2": "2 46805  64.5957 199.0914 0006314 229.6069 130.4292  2.13099889 39688"
      },
      "geometry": {
        "type": "Point",
        "coordinates": [
          -141.57042800382598,
          34.945203237436566
        ]
      }
    },
    {
      "type": "Feature",
      "properties": {
        "norad_id": 46826,
        "name": "GPS BIII-4  (PRN 14)",
        "group": "gnss",
        "lat": 24.642197067032928,
        "lon": -121.7895486221051,
        "alt_km": 20348.042356989255,
        "timestamp": "2025-12-02T08:59:32.957828+00:00",
        "meta_object_name": "GPS BIII-4  (PRN 14)",
        "meta_object_id": "2020-078A",
        "meta_epoch": "2025-11-12T03:01:29.190720",
        "meta_mean_motion": 2.00567032,
        "meta_eccentricity": 0.0063911,
        "meta_inclination": 54.0223,
        "meta_ra_of_asc_node": 219.5836,
        "meta_arg_of_pericenter": 203.4985,
        "meta_mean_anomaly": 326.7754,
        "meta_ephemeris_type": 0,
        "meta_classification_type": "U",
        "meta_norad_cat_id": 46826,
        "meta_element_set_no": 999,
        "meta_rev_at_epoch": 3715,
        "meta_bstar": 0,
        "meta_mean_motion_dot": -3.4e-07,
        "meta_mean_motion_ddot": 0,
        "tle_line1": "1 46826U 20078A   25316.12603230 -.00000034  00000+0  00000+0 0  9993",
        "tle_line2": "2 46826  54.0223 219.5836 0063911 203.4985 326.7754  2.00567032 37154"
      },
      "geometry": {
        "type": "Point",
        "coordinates": [
          -121.7895486221051,
          24.642197067032928
        ]
      }
    },
    {
      "type": "Feature",
      "properties": {
        "norad_id": 48859,
        "name": "GPS BIII-5  (PRN 11)",
        "group": "gnss",
        "lat": -29.648805218149878,
        "lon": -176.36051608334364,
        "alt_km": 20123.853737966183,
        "timestamp": "2025-12-02T08:59:32.957841+00:00",
        "meta_object_name": "GPS BIII-5  (PRN 11)",
        "meta_object_id": "2021-054A",
        "meta_epoch": "2025-11-30T17:12:22.003776",
        "meta_mean_motion": 2.00553931,
        "meta_eccentricity": 0.00246504,
        "meta_inclination": 55.2605,
        "meta_ra_of_asc_node": 340.4377,
        "meta_arg_of_pericenter": 232.9586,
        "meta_mean_anomaly": 227.195,
        "meta_ephemeris_type": 0,
        "meta_classification_type": "U",
        "meta_norad_cat_id": 48859,
        "meta_element_set_no": 999,
        "meta_rev_at_epoch": 3277,
        "meta_bstar": 0,
        "meta_mean_motion_dot": -5.5e-07,
        "meta_mean_motion_ddot": 0,
        "tle_line1": "1 48859U 21054A   25334.71692134 -.00000055  00000+0  00000+0 0  9995",
        "tle_line2": "2 48859  55.2605 340.4377 0024650 232.9586 227.1950  2.00553931 32772"
      },
      "geometry": {
        "type": "Point",
        "coordinates": [
          -176.36051608334364,
          -29.648805218149878
        ]
      }
    }
  ]
}